start=new Date('2023-04-16T00:00:00.000Z').valueOf();
sats=[{"PERIOD":"95.588","OBJECT_ID":"2021-041M","ARG_OF_PERICENTER":"81.2697","COUNTRY_CODE":"US","RCS_SIZE":"LARGE","ECCENTRICITY":"0.00011440","LAUNCH_DATE":"2021-05-15","CENTER_NAME":"EARTH","DECAY_DATE":null,"NORAD_CAT_ID":"48564","TLE_LINE2":"2 48564  53.0524 205.7686 0001144  81.2697 278.8421 15.06471951105585","MEAN_MOTION":"15.06471951","INCLINATION":"53.0524","TLE_LINE1":"1 48564U 21041M   23105.66409762  .00043296  00000-0  29021-2 0  9996","EPHEMERIS_TYPE":"0","APOAPSIS":"547.785","REV_AT_EPOCH":"10558","ELEMENT_SET_NO":"999","REF_FRAME":"TEME","PERIAPSIS":"546.201","SITE":"AFETR","MEAN_ELEMENT_THEORY":"SGP4","RA_OF_ASC_NODE":"205.7686","BSTAR":"0.00290210000000","MEAN_MOTION_DDOT":"0.0000000000000","MEAN_MOTION_DOT":"0.00043296","TIME_SYSTEM":"UTC","OBJECT_TYPE":"PAYLOAD","FILE":"3888171","GP_ID":"230129160","CLASSIFICATION_TYPE":"U","EPOCH":"2023-04-15T15:56:18.034368","OBJECT_NAME":"STARLINK-2190","SEMIMAJOR_AXIS":"6925.128","MEAN_ANOMALY":"278.8421"},{"OBJECT_ID":"2021-041N","PERIOD":"95.587","ARG_OF_PERICENTER":"74.0945","COUNTRY_CODE":"US","RCS_SIZE":"LARGE","LAUNCH_DATE":"2021-05-15","ECCENTRICITY":"0.00011830","CENTER_NAME":"EARTH","DECAY_DATE":null,"NORAD_CAT_ID":"48565","TLE_LINE2":"2 48565  53.0529 205.7744 0001183  74.0945 286.0174 15.06484614105581","MEAN_MOTION":"15.06484614","INCLINATION":"53.0529","TLE_LINE1":"1 48565U 21041N   23105.65944985  .00044981  00000-0  30126-2 0  9997","EPHEMERIS_TYPE":"0","APOAPSIS":"547.773","REV_AT_EPOCH":"10558","ELEMENT_SET_NO":"999","REF_FRAME":"TEME","PERIAPSIS":"546.135","SITE":"AFETR","MEAN_ELEMENT_THEORY":"SGP4","RA_OF_ASC_NODE":"205.7744","BSTAR":"0.00301260000000","MEAN_MOTION_DDOT":"0.0000000000000","MEAN_MOTION_DOT":"0.00044981","TIME_SYSTEM":"UTC","FILE":"3888171","OBJECT_TYPE":"PAYLOAD","GP_ID":"230128910","CLASSIFICATION_TYPE":"U","EPOCH":"2023-04-15T15:49:36.467040","OBJECT_NAME":"STARLINK-2191","MEAN_ANOMALY":"286.0174","SEMIMAJOR_AXIS":"6925.089"},{"DECAY_DATE":null,"NORAD_CAT_ID":"48566","CENTER_NAME":"EARTH","LAUNCH_DATE":"2021-05-15","ECCENTRICITY":"0.00012590","RCS_SIZE":"LARGE","COUNTRY_CODE":"US","ARG_OF_PERICENTER":"68.2306","OBJECT_ID":"2021-041P","PERIOD":"95.586","REV_AT_EPOCH":"10544","TLE_LINE1":"1 48566U 21041P   23105.68158752  .00045682  00000-0  30581-2 0  9994","EPHEMERIS_TYPE":"0","APOAPSIS":"547.796","INCLINATION":"53.0530","MEAN_MOTION":"15.06494494","TLE_LINE2":"2 48566  53.0530 215.6587 0001259  68.2306 291.8816 15.06494494105448","MEAN_MOTION_DDOT":"0.0000000000000","MEAN_MOTION_DOT":"0.00045682","BSTAR":"0.00305810000000","RA_OF_ASC_NODE":"215.6587","MEAN_ELEMENT_THEORY":"SGP4","SITE":"AFETR","PERIAPSIS":"546.052","ELEMENT_SET_NO":"999","REF_FRAME":"TEME","SEMIMAJOR_AXIS":"6925.059","MEAN_ANOMALY":"291.8816","OBJECT_NAME":"STARLINK-2214","EPOCH":"2023-04-15T16:21:29.161728","CLASSIFICATION_TYPE":"U","GP_ID":"230130161","FILE":"3888171","OBJECT_TYPE":"PAYLOAD","TIME_SYSTEM":"UTC"},{"PERIAPSIS":"545.933","ELEMENT_SET_NO":"999","REF_FRAME":"TEME","MEAN_ELEMENT_THEORY":"SGP4","SITE":"AFETR","MEAN_MOTION_DOT":"0.00043014","MEAN_MOTION_DDOT":"0.0000000000000","BSTAR":"0.00288380000000","RA_OF_ASC_NODE":"216.2157","FILE":"3887974","OBJECT_TYPE":"PAYLOAD","TIME_SYSTEM":"UTC","CLASSIFICATION_TYPE":"U","GP_ID":"230098644","EPOCH":"2023-04-15T13:31:40.452096","MEAN_ANOMALY":"281.0828","SEMIMAJOR_AXIS":"6925.144","OBJECT_NAME":"STARLINK-2215","COUNTRY_CODE":"US","ARG_OF_PERICENTER":"79.0336","PERIOD":"95.588","OBJECT_ID":"2021-041Q","ECCENTRICITY":"0.00015540","LAUNCH_DATE":"2021-05-15","CENTER_NAME":"EARTH","RCS_SIZE":"LARGE","NORAD_CAT_ID":"48567","DECAY_DATE":null,"TLE_LINE2":"2 48567  53.0526 216.2157 0001554  79.0336 281.0828 15.06466805105422","MEAN_MOTION":"15.06466805","REV_AT_EPOCH":"10542","APOAPSIS":"548.085","TLE_LINE1":"1 48567U 21041Q   23105.56366264  .00043014  00000-0  28838-2 0  9990","EPHEMERIS_TYPE":"0","INCLINATION":"53.0526"},{"MEAN_ANOMALY":"293.4896","SEMIMAJOR_AXIS":"6925.175","OBJECT_NAME":"STARLINK-2217","EPOCH":"2023-04-15T12:13:22.413216","CLASSIFICATION_TYPE":"U","GP_ID":"230097397","FILE":"3887974","OBJECT_TYPE":"PAYLOAD","TIME_SYSTEM":"UTC","MEAN_MOTION_DDOT":"0.0000000000000","MEAN_MOTION_DOT":"0.00037860","BSTAR":"0.00254310000000","RA_OF_ASC_NODE":"206.4648","MEAN_ELEMENT_THEORY":"SGP4","SITE":"AFETR","PERIAPSIS":"546.198","ELEMENT_SET_NO":"999","REF_FRAME":"TEME","REV_AT_EPOCH":"10555","EPHEMERIS_TYPE":"0","TLE_LINE1":"1 48568U 21041R   23105.50928719  .00037860  00000-0  25431-2 0  9992","APOAPSIS":"547.881","INCLINATION":"53.0520","MEAN_MOTION":"15.06456766","TLE_LINE2":"2 48568  53.0520 206.4648 0001215  66.6221 293.4896 15.06456766105553","DECAY_DATE":null,"NORAD_CAT_ID":"48568","LAUNCH_DATE":"2021-05-15","CENTER_NAME":"EARTH","ECCENTRICITY":"0.00012150","RCS_SIZE":"LARGE","COUNTRY_CODE":"US","ARG_OF_PERICENTER":"66.6221","PERIOD":"95.589","OBJECT_ID":"2021-041R"},{"TLE_LINE2":"2 48569  53.0527 205.7519 0001293  77.6878 282.4255 15.06487059105585","MEAN_MOTION":"15.06487059","REV_AT_EPOCH":"10558","INCLINATION":"53.0527","TLE_LINE1":"1 48569U 21041S   23105.66777050  .00045654  00000-0  30569-2 0  9998","EPHEMERIS_TYPE":"0","APOAPSIS":"547.842","COUNTRY_CODE":"US","PERIOD":"95.587","OBJECT_ID":"2021-041S","ARG_OF_PERICENTER":"77.6878","ECCENTRICITY":"0.00012930","LAUNCH_DATE":"2021-05-15","CENTER_NAME":"EARTH","RCS_SIZE":"LARGE","DECAY_DATE":null,"NORAD_CAT_ID":"48569","TIME_SYSTEM":"UTC","OBJECT_TYPE":"PAYLOAD","FILE":"3888171","GP_ID":"230129410","CLASSIFICATION_TYPE":"U","EPOCH":"2023-04-15T16:01:35.371200","MEAN_ANOMALY":"282.4255","SEMIMAJOR_AXIS":"6925.082","OBJECT_NAME":"STARLINK-2219","PERIAPSIS":"546.051","ELEMENT_SET_NO":"999","REF_FRAME":"TEME","MEAN_ELEMENT_THEORY":"SGP4","SITE":"AFETR","BSTAR":"0.00305690000000","MEAN_MOTION_DDOT":"0.0000000000000","MEAN_MOTION_DOT":"0.00045654","RA_OF_ASC_NODE":"205.7519"},{"PERIAPSIS":"545.837","ELEMENT_SET_NO":"999","REF_FRAME":"TEME","BSTAR":"0.00305360000000","MEAN_MOTION_DDOT":"0.0000000000000","MEAN_MOTION_DOT":"0.00045667","RA_OF_ASC_NODE":"215.5019","MEAN_ELEMENT_THEORY":"SGP4","SITE":"AFETR","GP_ID":"230129662","CLASSIFICATION_TYPE":"U","TIME_SYSTEM":"UTC","OBJECT_TYPE":"PAYLOAD","FILE":"3888171","SEMIMAJOR_AXIS":"6924.929","MEAN_ANOMALY":"276.9007","OBJECT_NAME":"STARLINK-2220","EPOCH":"2023-04-15T17:19:48.952704","COUNTRY_CODE":"US","OBJECT_ID":"2021-041T","PERIOD":"95.583","ARG_OF_PERICENTER":"83.2139","DECAY_DATE":null,"NORAD_CAT_ID":"48570","ECCENTRICITY":"0.00013820","LAUNCH_DATE":"2021-05-15","CENTER_NAME":"EARTH","RCS_SIZE":"LARGE","MEAN_MOTION":"15.06536827","TLE_LINE2":"2 48570  53.0535 215.5019 0001382  83.2139 276.9007 15.06536827105448","REV_AT_EPOCH":"10544","INCLINATION":"53.0535","APOAPSIS":"547.751","TLE_LINE1":"1 48570U 21041T   23105.72209436  .00045667  00000-0  30536-2 0  9993","EPHEMERIS_TYPE":"0"},{"PERIAPSIS":"546.122","REF_FRAME":"TEME","ELEMENT_SET_NO":"999","MEAN_MOTION_DOT":"0.00042613","MEAN_MOTION_DDOT":"0.0000000000000","BSTAR":"0.00285630000000","RA_OF_ASC_NODE":"215.4716","MEAN_ELEMENT_THEORY":"SGP4","SITE":"AFETR","CLASSIFICATION_TYPE":"U","GP_ID":"230129909","FILE":"3888171","OBJECT_TYPE":"PAYLOAD","TIME_SYSTEM":"UTC","SEMIMAJOR_AXIS":"6925.106","MEAN_ANOMALY":"299.8894","OBJECT_NAME":"STARLINK-2221","EPOCH":"2023-04-15T17:30:29.501568","COUNTRY_CODE":"US","ARG_OF_PERICENTER":"60.2217","OBJECT_ID":"2021-041U","PERIOD":"95.587","NORAD_CAT_ID":"48571","DECAY_DATE":null,"CENTER_NAME":"EARTH","LAUNCH_DATE":"2021-05-15","ECCENTRICITY":"0.00012250","RCS_SIZE":"LARGE","MEAN_MOTION":"15.06479274","TLE_LINE2":"2 48571  53.0533 215.4716 0001225  60.2217 299.8894 15.06479274105459","REV_AT_EPOCH":"10545","EPHEMERIS_TYPE":"0","TLE_LINE1":"1 48571U 21041U   23105.72950812  .00042613  00000-0  28563-2 0  9990","APOAPSIS":"547.819","INCLINATION":"53.0533"},{"DECAY_DATE":null,"NORAD_CAT_ID":"48572","RCS_SIZE":"LARGE","LAUNCH_DATE":"2021-05-15","ECCENTRICITY":"0.00016310","CENTER_NAME":"EARTH","ARG_OF_PERICENTER":"71.8496","OBJECT_ID":"2021-041V","PERIOD":"95.590","COUNTRY_CODE":"US","EPHEMERIS_TYPE":"0","TLE_LINE1":"1 48572U 21041V   23105.72582510  .00047380  00000-0  31762-2 0  9998","APOAPSIS":"548.264","INCLINATION":"53.0535","REV_AT_EPOCH":"10545","MEAN_MOTION":"15.06425940","TLE_LINE2":"2 48572  53.0535 215.4933 0001631  71.8496 288.2670 15.06425940105456","RA_OF_ASC_NODE":"215.4933","MEAN_MOTION_DOT":"0.00047380","MEAN_MOTION_DDOT":"0.0000000000000","BSTAR":"0.00317620000000","SITE":"AFETR","MEAN_ELEMENT_THEORY":"SGP4","ELEMENT_SET_NO":"999","REF_FRAME":"TEME","PERIAPSIS":"546.005","OBJECT_NAME":"STARLINK-2222","SEMIMAJOR_AXIS":"6925.269","MEAN_ANOMALY":"288.2670","EPOCH":"2023-04-15T17:25:11.288640","CLASSIFICATION_TYPE":"U","GP_ID":"230129161","FILE":"3888171","OBJECT_TYPE":"PAYLOAD","TIME_SYSTEM":"UTC"},{"TLE_LINE2":"2 48573  53.0533 206.4812 0001324  91.8915 268.2226 15.06477103105552","MEAN_MOTION":"15.06477103","EPHEMERIS_TYPE":"0","TLE_LINE1":"1 48573U 21041W   23105.50560310  .00038007  00000-0  25514-2 0  9993","APOAPSIS":"547.894","INCLINATION":"53.0533","REV_AT_EPOCH":"10555","ARG_OF_PERICENTER":"91.8915","PERIOD":"95.587","OBJECT_ID":"2021-041W","COUNTRY_CODE":"US","RCS_SIZE":"LARGE","ECCENTRICITY":"0.00013240","LAUNCH_DATE":"2021-05-15","CENTER_NAME":"EARTH","DECAY_DATE":null,"NORAD_CAT_ID":"48573","FILE":"3887974","OBJECT_TYPE":"PAYLOAD","TIME_SYSTEM":"UTC","CLASSIFICATION_TYPE":"U","GP_ID":"230097647","EPOCH":"2023-04-15T12:08:04.107840","OBJECT_NAME":"STARLINK-2224","MEAN_ANOMALY":"268.2226","SEMIMAJOR_AXIS":"6925.112","ELEMENT_SET_NO":"999","REF_FRAME":"TEME","PERIAPSIS":"546.060","SITE":"AFETR","MEAN_ELEMENT_THEORY":"SGP4","RA_OF_ASC_NODE":"206.4812","MEAN_MOTION_DDOT":"0.0000000000000","MEAN_MOTION_DOT":"0.00038007","BSTAR":"0.00255140000000"}];
